[{"OBJECT_NAME":"STARLINK-31795","OBJECT_ID":"2024-082Q","EPOCH":"2026-03-09T01:23:58.587936","MEAN_MOTION":15.27584811,"ECCENTRICITY":0.00013778,"INCLINATION":43.0025,"RA_OF_ASC_NODE":84.8034,"ARG_OF_PERICENTER":283.436,"MEAN_ANOMALY":76.6339,"EPHEMERIS_TYPE":0,"CLASSIFICATION_TYPE":"U","NORAD_CAT_ID":59645,"ELEMENT_SET_NO":999,"REV_AT_EPOCH":10538,"BSTAR":7.5590841e-5,"MEAN_MOTION_DOT":1.819e-5,"MEAN_MOTION_DDOT":0},{"OBJECT_NAME":"FOSSASAT-2E20 (TAT-O)","OBJECT_ID":"2025-009DN","EPOCH":"2026-03-09T17:00:18.734688","MEAN_MOTION":15.2699108,"ECCENTRICITY":0.00021892,"INCLINATION":97.3231,"RA_OF_ASC_NODE":146.2859,"ARG_OF_PERICENTER":347.5575,"MEAN_ANOMALY":12.561,"EPHEMERIS_TYPE":0,"CLASSIFICATION_TYPE":"U","NORAD_CAT_ID":63003,"ELEMENT_SET_NO":999,"REV_AT_EPOCH":12131,"BSTAR":0.00061862572,"MEAN_MOTION_DOT":0.00016337,"MEAN_MOTION_DDOT":0}]
